0 SL-16 DEB
1 22388U 92093CD  13283.78672398  .00000744  00000-0  45671-3 0  5361
2 22388 070.9542 148.8745 0114008 007.5515 122.2606 14.05744738 59552
0 SL-16 DEB
1 22388U 92093CD  13286.06270884  .00001006  00000-0  60852-3 0  5370
2 22388 070.9538 144.1556 0114125 004.1932 120.2739 14.05746076 59879
0 SL-16 DEB
1 22388U 92093CD  13288.26768638  .00001582  00000-0  94087-3 0  5380
2 22388 070.9537 139.5836 0114242 000.9196 118.9830 14.05751026 60186
0 SL-16 DEB
1 22388U 92093CD  13290.39128419  .00001411  00000-0  84172-3 0  5390
2 22388 070.9537 135.1801 0114362 357.7578 065.9016 14.05757982 60487
0 SL-16 DEB
1 22388U 92093CD  13292.67742853  .00001312  00000-0  78459-3 0  5400
2 22388 070.9539 130.4395 0114451 354.3747 115.4543 14.05765633 60809
0 SL-16 DEB
1 22388U 92093CD  13295.50819337  .00001121  00000-0  67384-3 0  5411
2 22388 070.9538 124.5695 0114567 350.1918 041.2600 14.05775688 61203
